[{"OBJECT_NAME":"STARLINK-35163","OBJECT_ID":"2025-198R","EPOCH":"2026-03-09T22:19:56.627328","MEAN_MOTION":15.30196936,"ECCENTRICITY":8.227e-5,"INCLINATION":53.157,"RA_OF_ASC_NODE":270.1161,"ARG_OF_PERICENTER":94.8958,"MEAN_ANOMALY":265.2136,"EPHEMERIS_TYPE":0,"CLASSIFICATION_TYPE":"U","NORAD_CAT_ID":65507,"ELEMENT_SET_NO":999,"REV_AT_EPOCH":2865,"BSTAR":0.00097372402,"MEAN_MOTION_DOT":0.00028588,"MEAN_MOTION_DDOT":0},{"OBJECT_NAME":"CZ-2C DEB","OBJECT_ID":"2018-056F","EPOCH":"2026-03-09T10:57:26.102304","MEAN_MOTION":15.27739248,"ECCENTRICITY":0.00119172,"INCLINATION":98.1188,"RA_OF_ASC_NODE":250.032,"ARG_OF_PERICENTER":4.6998,"MEAN_ANOMALY":355.4349,"EPHEMERIS_TYPE":0,"CLASSIFICATION_TYPE":"U","NORAD_CAT_ID":43534,"ELEMENT_SET_NO":999,"REV_AT_EPOCH":41855,"BSTAR":0.00085537155,"MEAN_MOTION_DOT":0.00023193,"MEAN_MOTION_DDOT":0}]
